start=new Date('2022-06-13T00:00:00.000Z').valueOf();
sats=[{"TLE_LINE2":"2 47401  53.0561  43.1317 0002056  58.0912 302.0276 15.06401494 77609","FILE":"3493781","MEAN_ELEMENT_THEORY":"SGP4","MEAN_ANOMALY":"302.0276","PERIOD":"95.592","BSTAR":"0.00001099700000","CENTER_NAME":"EARTH","MEAN_MOTION_DDOT":"0.0000000000000","RA_OF_ASC_NODE":"43.1317","APOAPSIS":"548.633","MEAN_MOTION":"15.06401494","GP_ID":"206013880","COUNTRY_CODE":"US","SITE":"AFETR","ELEMENT_SET_NO":"999","EPOCH":"2022-06-12T20:21:37.621440","DECAY_DATE":null,"NORAD_CAT_ID":"47401","ECCENTRICITY":"0.00020560","EPHEMERIS_TYPE":"0","TLE_LINE1":"1 47401U 21005BE  22163.84835210 -.00000118  00000-0  10997-4 0  9990","PERIAPSIS":"545.785","LAUNCH_DATE":"2021-01-20","OBJECT_ID":"2021-005BE","SEMIMAJOR_AXIS":"6925.344","INCLINATION":"53.0561","REF_FRAME":"TEME","TIME_SYSTEM":"UTC","REV_AT_EPOCH":"7760","OBJECT_NAME":"STARLINK-2123","RCS_SIZE":"LARGE","MEAN_MOTION_DOT":"-0.00000118","ARG_OF_PERICENTER":"58.0912","CLASSIFICATION_TYPE":"U","OBJECT_TYPE":"PAYLOAD"},{"TLE_LINE2":"2 47402  53.0558  42.7365 0001855  50.2988 309.8164 15.06409533 77611","FILE":"3493781","MEAN_ELEMENT_THEORY":"SGP4","BSTAR":"0.00018829000000","PERIOD":"95.592","MEAN_ANOMALY":"309.8164","CENTER_NAME":"EARTH","MEAN_MOTION_DDOT":"0.0000000000000","RA_OF_ASC_NODE":"42.7365","APOAPSIS":"548.469","MEAN_MOTION":"15.06409533","COUNTRY_CODE":"US","GP_ID":"206015131","SITE":"AFETR","ELEMENT_SET_NO":"999","EPOCH":"2022-06-12T22:23:41.656128","DECAY_DATE":null,"NORAD_CAT_ID":"47402","ECCENTRICITY":"0.00018550","EPHEMERIS_TYPE":"0","TLE_LINE1":"1 47402U 21005BF  22163.93312102  .00002525  00000-0  18829-3 0  9995","OBJECT_ID":"2021-005BF","LAUNCH_DATE":"2021-01-20","PERIAPSIS":"545.900","SEMIMAJOR_AXIS":"6925.319","INCLINATION":"53.0558","REF_FRAME":"TEME","REV_AT_EPOCH":"7761","TIME_SYSTEM":"UTC","OBJECT_NAME":"STARLINK-2124","RCS_SIZE":"LARGE","MEAN_MOTION_DOT":"0.00002525","ARG_OF_PERICENTER":"50.2988","CLASSIFICATION_TYPE":"U","OBJECT_TYPE":"PAYLOAD"},{"PERIOD":"95.592","MEAN_ANOMALY":"290.1621","BSTAR":"0.00001621500000","MEAN_MOTION_DDOT":"0.0000000000000","CENTER_NAME":"EARTH","TLE_LINE2":"2 47403  53.0550  43.0110 0001780  69.9560 290.1621 15.06404388 77608","MEAN_ELEMENT_THEORY":"SGP4","FILE":"3493781","MEAN_MOTION":"15.06404388","APOAPSIS":"548.433","RA_OF_ASC_NODE":"43.0110","SITE":"AFETR","GP_ID":"206015377","COUNTRY_CODE":"US","DECAY_DATE":null,"EPOCH":"2022-06-12T20:58:46.082208","ELEMENT_SET_NO":"999","ECCENTRICITY":"0.00017800","EPHEMERIS_TYPE":"0","NORAD_CAT_ID":"47403","SEMIMAJOR_AXIS":"6925.335","TLE_LINE1":"1 47403U 21005BG  22163.87414447 -.00000040  00000-0  16215-4 0  9993","PERIAPSIS":"545.967","LAUNCH_DATE":"2021-01-20","OBJECT_ID":"2021-005BG","RCS_SIZE":"LARGE","OBJECT_NAME":"STARLINK-2127","INCLINATION":"53.0550","TIME_SYSTEM":"UTC","REV_AT_EPOCH":"7760","REF_FRAME":"TEME","ARG_OF_PERICENTER":"69.9560","MEAN_MOTION_DOT":"-0.00000040","OBJECT_TYPE":"PAYLOAD","CLASSIFICATION_TYPE":"U"},{"BSTAR":"0.00010120000000","PERIOD":"95.592","MEAN_ANOMALY":"299.2695","MEAN_MOTION_DDOT":"0.0000000000000","CENTER_NAME":"EARTH","TLE_LINE2":"2 47404  53.0563  43.0266 0001856  60.8480 299.2695 15.06402281 77601","MEAN_ELEMENT_THEORY":"SGP4","FILE":"3493781","MEAN_MOTION":"15.06402281","APOAPSIS":"548.492","RA_OF_ASC_NODE":"43.0266","SITE":"AFETR","GP_ID":"206014131","COUNTRY_CODE":"US","DECAY_DATE":null,"EPOCH":"2022-06-12T20:53:28.250304","ELEMENT_SET_NO":"999","ECCENTRICITY":"0.00018560","EPHEMERIS_TYPE":"0","NORAD_CAT_ID":"47404","SEMIMAJOR_AXIS":"6925.342","TLE_LINE1":"1 47404U 21005BH  22163.87046586  .00001226  00000-0  10120-3 0  9993","OBJECT_ID":"2021-005BH","LAUNCH_DATE":"2021-01-20","PERIAPSIS":"545.921","RCS_SIZE":"LARGE","OBJECT_NAME":"STARLINK-2128","INCLINATION":"53.0563","REV_AT_EPOCH":"7760","TIME_SYSTEM":"UTC","REF_FRAME":"TEME","ARG_OF_PERICENTER":"60.8480","MEAN_MOTION_DOT":"0.00001226","OBJECT_TYPE":"PAYLOAD","CLASSIFICATION_TYPE":"U"},{"OBJECT_TYPE":"PAYLOAD","CLASSIFICATION_TYPE":"U","ARG_OF_PERICENTER":"58.5182","MEAN_MOTION_DOT":"-0.00000557","TIME_SYSTEM":"UTC","REV_AT_EPOCH":"7716","REF_FRAME":"TEME","INCLINATION":"53.0555","RCS_SIZE":"LARGE","OBJECT_NAME":"STARLINK-2130","LAUNCH_DATE":"2021-01-20","OBJECT_ID":"2021-005BJ","PERIAPSIS":"545.776","TLE_LINE1":"1 47405U 21005BJ  22163.78660969 -.00000557  00000-0 -18449-4 0  9992","SEMIMAJOR_AXIS":"6925.353","NORAD_CAT_ID":"47405","EPHEMERIS_TYPE":"0","ECCENTRICITY":"0.00020820","ELEMENT_SET_NO":"999","EPOCH":"2022-06-12T18:52:43.077216","DECAY_DATE":null,"COUNTRY_CODE":"US","GP_ID":"206014381","SITE":"AFETR","APOAPSIS":"548.660","RA_OF_ASC_NODE":"73.3886","MEAN_MOTION":"15.06398601","MEAN_ELEMENT_THEORY":"SGP4","FILE":"3493781","TLE_LINE2":"2 47405  53.0555  73.3886 0002082  58.5182 301.6010 15.06398601 77162","MEAN_MOTION_DDOT":"0.0000000000000","CENTER_NAME":"EARTH","MEAN_ANOMALY":"301.6010","PERIOD":"95.592","BSTAR":"-0.00001844900000"},{"INCLINATION":"53.0561","REF_FRAME":"TEME","TIME_SYSTEM":"UTC","REV_AT_EPOCH":"7760","OBJECT_NAME":"STARLINK-2133","RCS_SIZE":"LARGE","MEAN_MOTION_DOT":"0.00000457","ARG_OF_PERICENTER":"80.8129","OBJECT_TYPE":"PAYLOAD","CLASSIFICATION_TYPE":"U","NORAD_CAT_ID":"47406","ECCENTRICITY":"0.00014540","EPHEMERIS_TYPE":"0","TLE_LINE1":"1 47406U 21005BK  22163.88152470  .00000457  00000-0  49606-4 0  9993","PERIAPSIS":"546.210","LAUNCH_DATE":"2021-01-20","OBJECT_ID":"2021-005BK","SEMIMAJOR_AXIS":"6925.352","COUNTRY_CODE":"US","GP_ID":"206014631","SITE":"AFETR","ELEMENT_SET_NO":"999","EPOCH":"2022-06-12T21:09:23.734080","DECAY_DATE":null,"TLE_LINE2":"2 47406  53.0561  42.9818 0001454  80.8129 279.3025 15.06398896 77600","FILE":"3493781","MEAN_ELEMENT_THEORY":"SGP4","MEAN_ANOMALY":"279.3025","PERIOD":"95.592","BSTAR":"0.00004960600000","CENTER_NAME":"EARTH","MEAN_MOTION_DDOT":"0.0000000000000","RA_OF_ASC_NODE":"42.9818","APOAPSIS":"548.224","MEAN_MOTION":"15.06398896"},{"OBJECT_TYPE":"PAYLOAD","CLASSIFICATION_TYPE":"U","ARG_OF_PERICENTER":"72.6626","MEAN_MOTION_DOT":"0.00003559","TIME_SYSTEM":"UTC","REV_AT_EPOCH":"7760","REF_FRAME":"TEME","INCLINATION":"53.0551","RCS_SIZE":"LARGE","OBJECT_NAME":"STARLINK-2134","OBJECT_ID":"2021-005BL","LAUNCH_DATE":"2021-01-20","PERIAPSIS":"546.015","TLE_LINE1":"1 47407U 21005BL  22163.88889250  .00003559  00000-0  25766-3 0  9993","SEMIMAJOR_AXIS":"6925.322","NORAD_CAT_ID":"47407","EPHEMERIS_TYPE":"0","ECCENTRICITY":"0.00016920","ELEMENT_SET_NO":"999","EPOCH":"2022-06-12T21:20:00.312000","DECAY_DATE":null,"GP_ID":"206014877","COUNTRY_CODE":"US","SITE":"AFETR","APOAPSIS":"548.359","RA_OF_ASC_NODE":"42.9444","MEAN_MOTION":"15.06408745","MEAN_ELEMENT_THEORY":"SGP4","FILE":"3493781","TLE_LINE2":"2 47407  53.0551  42.9444 0001692  72.6626 287.4548 15.06408745 77605","MEAN_MOTION_DDOT":"0.0000000000000","CENTER_NAME":"EARTH","BSTAR":"0.00025766000000","PERIOD":"95.592","MEAN_ANOMALY":"287.4548"},{"ARG_OF_PERICENTER":"78.7556","MEAN_MOTION_DOT":"0.00000241","CLASSIFICATION_TYPE":"U","OBJECT_TYPE":"PAYLOAD","RCS_SIZE":"LARGE","OBJECT_NAME":"STARLINK-2135","INCLINATION":"53.0566","REV_AT_EPOCH":"7761","TIME_SYSTEM":"UTC","REF_FRAME":"TEME","SEMIMAJOR_AXIS":"6925.341","TLE_LINE1":"1 47408U 21005BM  22163.92575243  .00000241  00000-0  35099-4 0  9999","LAUNCH_DATE":"2021-01-20","OBJECT_ID":"2021-005BM","PERIAPSIS":"546.035","ECCENTRICITY":"0.00016910","EPHEMERIS_TYPE":"0","NORAD_CAT_ID":"47408","DECAY_DATE":null,"EPOCH":"2022-06-12T22:13:05.009952","ELEMENT_SET_NO":"999","SITE":"AFETR","GP_ID":"206013631","COUNTRY_CODE":"US","MEAN_MOTION":"15.06402587","APOAPSIS":"548.377","RA_OF_ASC_NODE":"42.7845","PERIOD":"95.592","BSTAR":"0.00003509900000","MEAN_ANOMALY":"281.3623","MEAN_MOTION_DDOT":"0.0000000000000","CENTER_NAME":"EARTH","TLE_LINE2":"2 47408  53.0566  42.7845 0001691  78.7556 281.3623 15.06402587 77619","MEAN_ELEMENT_THEORY":"SGP4","FILE":"3493781"},{"COUNTRY_CODE":"US","GP_ID":"206014147","SITE":"AFETR","EPOCH":"2022-06-12T20:45:30.812544","ELEMENT_SET_NO":"999","DECAY_DATE":null,"FILE":"3493781","MEAN_ELEMENT_THEORY":"SGP4","TLE_LINE2":"2 47548  53.0559  23.0519 0001999  66.6015 293.5184 15.06387310 75074","CENTER_NAME":"EARTH","MEAN_MOTION_DDOT":"0.0000000000000","BSTAR":"0.00034585000000","PERIOD":"95.593","MEAN_ANOMALY":"293.5184","RA_OF_ASC_NODE":"23.0519","APOAPSIS":"548.637","MEAN_MOTION":"15.06387310","REF_FRAME":"TEME","TIME_SYSTEM":"UTC","REV_AT_EPOCH":"7507","INCLINATION":"53.0559","OBJECT_NAME":"STARLINK-1782","RCS_SIZE":"LARGE","OBJECT_TYPE":"PAYLOAD","CLASSIFICATION_TYPE":"U","MEAN_MOTION_DOT":"0.00004872","ARG_OF_PERICENTER":"66.6015","NORAD_CAT_ID":"47548","EPHEMERIS_TYPE":"0","ECCENTRICITY":"0.00019990","OBJECT_ID":"2021-009A","LAUNCH_DATE":"2021-02-04","PERIAPSIS":"545.868","TLE_LINE1":"1 47548U 21009A   22163.86493996  .00004872  00000-0  34585-3 0  9997","SEMIMAJOR_AXIS":"6925.387"},{"LAUNCH_DATE":"2021-02-04","PERIAPSIS":"546.337","OBJECT_ID":"2021-009B","TLE_LINE1":"1 47549U 21009B   22163.86124290  .00001111  00000-0  93489-4 0  9998","SEMIMAJOR_AXIS":"6925.347","NORAD_CAT_ID":"47549","EPHEMERIS_TYPE":"0","ECCENTRICITY":"0.00012640","OBJECT_TYPE":"PAYLOAD","CLASSIFICATION_TYPE":"U","ARG_OF_PERICENTER":"70.8267","MEAN_MOTION_DOT":"0.00001111","TIME_SYSTEM":"UTC","REV_AT_EPOCH":"7507","REF_FRAME":"TEME","INCLINATION":"53.0548","RCS_SIZE":"LARGE","OBJECT_NAME":"STARLINK-1806","APOAPSIS":"548.087","RA_OF_ASC_NODE":"23.0643","MEAN_MOTION":"15.06400549","MEAN_ELEMENT_THEORY":"SGP4","FILE":"3493781","TLE_LINE2":"2 47549  53.0548  23.0643 0001264  70.8267 289.2859 15.06400549 75073","MEAN_MOTION_DDOT":"0.0000000000000","CENTER_NAME":"EARTH","MEAN_ANOMALY":"289.2859","PERIOD":"95.592","BSTAR":"0.00009348900000","EPOCH":"2022-06-12T20:40:11.386560","ELEMENT_SET_NO":"999","DECAY_DATE":null,"GP_ID":"206014397","COUNTRY_CODE":"US","SITE":"AFETR"}];
